start=new Date('2022-02-21T00:00:00.000Z').valueOf();
sats=[{"GP_ID":"196512531","PERIOD":"95.592","LAUNCH_DATE":"2020-09-03","OBJECT_TYPE":"PAYLOAD","NORAD_CAT_ID":"46345","TLE_LINE2":"2 46345  53.0533 171.4800 0001327  63.1012 297.0112 15.06396417 81542","REF_FRAME":"TEME","OBJECT_ID":"2020-062W","REV_AT_EPOCH":"8154","ELEMENT_SET_NO":"999","BSTAR":"0.00009396600000","FILE":"3310556","MEAN_ANOMALY":"297.0112","INCLINATION":"53.0533","TLE_LINE1":"1 46345U 20062W   22051.71792481  .00001118  00000-0  93966-4 0  9999","MEAN_MOTION":"15.06396417","OBJECT_NAME":"STARLINK-1767","TIME_SYSTEM":"UTC","CLASSIFICATION_TYPE":"U","COUNTRY_CODE":"US","APOAPSIS":"548.144","PERIAPSIS":"546.306","MEAN_ELEMENT_THEORY":"SGP4","ECCENTRICITY":"0.00013270","EPHEMERIS_TYPE":"0","EPOCH":"2022-02-20T17:13:48.703584","MEAN_MOTION_DDOT":"0.0000000000000","SITE":"AFETR","MEAN_MOTION_DOT":"0.00001118","CENTER_NAME":"EARTH","ARG_OF_PERICENTER":"63.1012","RCS_SIZE":"LARGE","RA_OF_ASC_NODE":"171.4800","DECAY_DATE":null,"SEMIMAJOR_AXIS":"6925.360"},{"EPHEMERIS_TYPE":"0","MEAN_ELEMENT_THEORY":"SGP4","ECCENTRICITY":"0.00029430","EPOCH":"2022-02-20T16:15:56.170080","CLASSIFICATION_TYPE":"U","COUNTRY_CODE":"US","OBJECT_NAME":"STARLINK-1546","TIME_SYSTEM":"UTC","APOAPSIS":"465.073","PERIAPSIS":"461.046","RCS_SIZE":"LARGE","RA_OF_ASC_NODE":"38.0827","ARG_OF_PERICENTER":"22.0111","SEMIMAJOR_AXIS":"6841.194","DECAY_DATE":null,"MEAN_MOTION_DDOT":"0.0000000000000","SITE":"AFETR","CENTER_NAME":"EARTH","MEAN_MOTION_DOT":"0.00003874","LAUNCH_DATE":"2020-09-03","NORAD_CAT_ID":"46346","OBJECT_TYPE":"PAYLOAD","GP_ID":"196512783","PERIOD":"93.855","MEAN_ANOMALY":"338.1016","INCLINATION":"53.0549","FILE":"3310556","TLE_LINE1":"1 46346U 20062X   22051.67773345  .00003874  00000-0  12622-3 0  9993","MEAN_MOTION":"15.34280886","REF_FRAME":"TEME","TLE_LINE2":"2 46346  53.0549  38.0827 0002943  22.0111 338.1016 15.34280886 83428","BSTAR":"0.00012622000000","ELEMENT_SET_NO":"999","OBJECT_ID":"2020-062X","REV_AT_EPOCH":"8342"},{"BSTAR":"0.00028517000000","ELEMENT_SET_NO":"999","REV_AT_EPOCH":"8215","OBJECT_ID":"2020-062Y","REF_FRAME":"TEME","TLE_LINE2":"2 46347  53.0534 126.6675 0001625  54.3541 305.7599 15.06412429 82153","MEAN_MOTION":"15.06412429","TLE_LINE1":"1 46347U 20062Y   22051.67598502  .00003970  00000-0  28517-3 0  9991","INCLINATION":"53.0534","MEAN_ANOMALY":"305.7599","FILE":"3310556","PERIOD":"95.591","GP_ID":"196511752","NORAD_CAT_ID":"46347","OBJECT_TYPE":"PAYLOAD","LAUNCH_DATE":"2020-09-03","CENTER_NAME":"EARTH","MEAN_MOTION_DOT":"0.00003970","SITE":"AFETR","MEAN_MOTION_DDOT":"0.0000000000000","DECAY_DATE":null,"SEMIMAJOR_AXIS":"6925.310","RA_OF_ASC_NODE":"126.6675","RCS_SIZE":"LARGE","ARG_OF_PERICENTER":"54.3541","PERIAPSIS":"546.050","APOAPSIS":"548.301","CLASSIFICATION_TYPE":"U","COUNTRY_CODE":"US","OBJECT_NAME":"STARLINK-1547","TIME_SYSTEM":"UTC","EPOCH":"2022-02-20T16:13:25.105728","EPHEMERIS_TYPE":"0","ECCENTRICITY":"0.00016250","MEAN_ELEMENT_THEORY":"SGP4"},{"TIME_SYSTEM":"UTC","OBJECT_NAME":"STARLINK-1553","COUNTRY_CODE":"US","CLASSIFICATION_TYPE":"U","APOAPSIS":"548.397","PERIAPSIS":"546.066","ECCENTRICITY":"0.00016830","MEAN_ELEMENT_THEORY":"SGP4","EPHEMERIS_TYPE":"0","EPOCH":"2022-02-20T18:51:59.936832","MEAN_MOTION_DDOT":"0.0000000000000","SITE":"AFETR","MEAN_MOTION_DOT":"-0.00000403","CENTER_NAME":"EARTH","ARG_OF_PERICENTER":"60.9756","RCS_SIZE":"LARGE","RA_OF_ASC_NODE":"151.1736","DECAY_DATE":null,"SEMIMAJOR_AXIS":"6925.367","GP_ID":"196511780","PERIOD":"95.593","LAUNCH_DATE":"2020-09-03","OBJECT_TYPE":"PAYLOAD","NORAD_CAT_ID":"46348","TLE_LINE2":"2 46348  53.0543 151.1736 0001683  60.9756 299.1401 15.06394027 81835","REF_FRAME":"TEME","OBJECT_ID":"2020-062Z","REV_AT_EPOCH":"8183","BSTAR":"-0.00000812810000","ELEMENT_SET_NO":"999","FILE":"3310556","INCLINATION":"53.0543","MEAN_ANOMALY":"299.1401","TLE_LINE1":"1 46348U 20062Z   22051.78611038 -.00000403  00000-0 -81281-5 0  9993","MEAN_MOTION":"15.06394027"},{"EPHEMERIS_TYPE":"0","ECCENTRICITY":"0.00015630","MEAN_ELEMENT_THEORY":"SGP4","EPOCH":"2022-02-20T12:25:12.180576","COUNTRY_CODE":"US","CLASSIFICATION_TYPE":"U","TIME_SYSTEM":"UTC","OBJECT_NAME":"STARLINK-1575","APOAPSIS":"548.327","PERIAPSIS":"546.162","RCS_SIZE":"LARGE","RA_OF_ASC_NODE":"127.3889","ARG_OF_PERICENTER":"57.5788","DECAY_DATE":null,"SEMIMAJOR_AXIS":"6925.380","MEAN_MOTION_DDOT":"0.0000000000000","SITE":"AFETR","CENTER_NAME":"EARTH","MEAN_MOTION_DOT":"-0.00000486","LAUNCH_DATE":"2020-09-03","NORAD_CAT_ID":"46349","OBJECT_TYPE":"PAYLOAD","GP_ID":"196476722","PERIOD":"95.593","MEAN_ANOMALY":"302.5352","INCLINATION":"53.0581","FILE":"3310073","TLE_LINE1":"1 46349U 20062AA  22051.51750209 -.00000486  00000-0 -13750-4 0  9995","MEAN_MOTION":"15.06389771","REF_FRAME":"TEME","TLE_LINE2":"2 46349  53.0581 127.3889 0001563  57.5788 302.5352 15.06389771 82145","BSTAR":"-0.00001375000000","ELEMENT_SET_NO":"999","OBJECT_ID":"2020-062AA","REV_AT_EPOCH":"8214"},{"REV_AT_EPOCH":"8155","OBJECT_ID":"2020-062AB","BSTAR":"0.00029897000000","ELEMENT_SET_NO":"999","TLE_LINE2":"2 46350  53.0554 171.3626 0001643  60.7742 299.3411 15.06408991 81559","REF_FRAME":"TEME","MEAN_MOTION":"15.06408991","TLE_LINE1":"1 46350U 20062AB  22051.74740686  .00004175  00000-0  29897-3 0  9995","FILE":"3310556","MEAN_ANOMALY":"299.3411","INCLINATION":"53.0554","PERIOD":"95.592","GP_ID":"196513284","OBJECT_TYPE":"PAYLOAD","NORAD_CAT_ID":"46350","LAUNCH_DATE":"2020-09-03","MEAN_MOTION_DOT":"0.00004175","CENTER_NAME":"EARTH","SITE":"AFETR","MEAN_MOTION_DDOT":"0.0000000000000","DECAY_DATE":null,"SEMIMAJOR_AXIS":"6925.321","ARG_OF_PERICENTER":"60.7742","RA_OF_ASC_NODE":"171.3626","RCS_SIZE":"LARGE","PERIAPSIS":"546.048","APOAPSIS":"548.324","OBJECT_NAME":"STARLINK-1617","TIME_SYSTEM":"UTC","CLASSIFICATION_TYPE":"U","COUNTRY_CODE":"US","EPOCH":"2022-02-20T17:56:15.952704","ECCENTRICITY":"0.00016430","MEAN_ELEMENT_THEORY":"SGP4","EPHEMERIS_TYPE":"0"},{"LAUNCH_DATE":"2020-09-03","NORAD_CAT_ID":"46351","OBJECT_TYPE":"PAYLOAD","GP_ID":"196512253","PERIOD":"95.591","INCLINATION":"53.0539","MEAN_ANOMALY":"302.8519","FILE":"3310556","TLE_LINE1":"1 46351U 20062AC  22051.75292872  .00002743  00000-0  20287-3 0  9999","MEAN_MOTION":"15.06412942","REF_FRAME":"TEME","TLE_LINE2":"2 46351  53.0539 151.3260 0001322  57.2597 302.8519 15.06412942 81839","ELEMENT_SET_NO":"999","BSTAR":"0.00020287000000","OBJECT_ID":"2020-062AC","REV_AT_EPOCH":"8183","EPHEMERIS_TYPE":"0","ECCENTRICITY":"0.00013220","MEAN_ELEMENT_THEORY":"SGP4","EPOCH":"2022-02-20T18:04:13.041408","COUNTRY_CODE":"US","CLASSIFICATION_TYPE":"U","OBJECT_NAME":"STARLINK-1646","TIME_SYSTEM":"UTC","APOAPSIS":"548.089","PERIAPSIS":"546.258","RCS_SIZE":"LARGE","RA_OF_ASC_NODE":"151.3260","ARG_OF_PERICENTER":"57.2597","SEMIMAJOR_AXIS":"6925.309","DECAY_DATE":null,"MEAN_MOTION_DDOT":"0.0000000000000","SITE":"AFETR","CENTER_NAME":"EARTH","MEAN_MOTION_DOT":"0.00002743"},{"MEAN_ELEMENT_THEORY":"SGP4","ECCENTRICITY":"0.00012750","EPHEMERIS_TYPE":"0","EPOCH":"2022-02-20T16:02:08.482272","OBJECT_NAME":"STARLINK-1653","TIME_SYSTEM":"UTC","CLASSIFICATION_TYPE":"U","COUNTRY_CODE":"US","PERIAPSIS":"546.313","APOAPSIS":"548.078","ARG_OF_PERICENTER":"75.6996","RA_OF_ASC_NODE":"151.7065","RCS_SIZE":"LARGE","DECAY_DATE":null,"SEMIMAJOR_AXIS":"6925.331","SITE":"AFETR","MEAN_MOTION_DDOT":"0.0000000000000","MEAN_MOTION_DOT":"0.00000900","CENTER_NAME":"EARTH","LAUNCH_DATE":"2020-09-03","OBJECT_TYPE":"PAYLOAD","NORAD_CAT_ID":"46352","GP_ID":"196512281","PERIOD":"95.592","FILE":"3310556","INCLINATION":"53.0532","MEAN_ANOMALY":"284.4134","MEAN_MOTION":"15.06405889","TLE_LINE1":"1 46352U 20062AD  22051.66815373  .00000900  00000-0  79293-4 0  9992","TLE_LINE2":"2 46352  53.0532 151.7065 0001275  75.6996 284.4134 15.06405889 81823","REF_FRAME":"TEME","REV_AT_EPOCH":"8182","OBJECT_ID":"2020-062AD","BSTAR":"0.00007929300000","ELEMENT_SET_NO":"999"},{"TLE_LINE2":"2 46353  53.0553 171.4320 0001492  72.5549 287.5603 15.06405753 81545","REF_FRAME":"TEME","REV_AT_EPOCH":"8154","OBJECT_ID":"2020-062AE","ELEMENT_SET_NO":"999","BSTAR":"0.00003947400000","FILE":"3310556","MEAN_ANOMALY":"287.5603","INCLINATION":"53.0553","MEAN_MOTION":"15.06405753","TLE_LINE1":"1 46353U 20062AE  22051.73265674  .00000307  00000-0  39474-4 0  9992","GP_ID":"196512532","PERIOD":"95.592","LAUNCH_DATE":"2020-09-03","OBJECT_TYPE":"PAYLOAD","NORAD_CAT_ID":"46353","SITE":"AFETR","MEAN_MOTION_DDOT":"0.0000000000000","MEAN_MOTION_DOT":"0.00000307","CENTER_NAME":"EARTH","ARG_OF_PERICENTER":"72.5549","RA_OF_ASC_NODE":"171.4320","RCS_SIZE":"LARGE","DECAY_DATE":null,"SEMIMAJOR_AXIS":"6925.331","TIME_SYSTEM":"UTC","OBJECT_NAME":"STARLINK-1656","CLASSIFICATION_TYPE":"U","COUNTRY_CODE":"US","PERIAPSIS":"546.163","APOAPSIS":"548.229","ECCENTRICITY":"0.00014920","MEAN_ELEMENT_THEORY":"SGP4","EPHEMERIS_TYPE":"0","EPOCH":"2022-02-20T17:35:01.542336"},{"COUNTRY_CODE":"US","CLASSIFICATION_TYPE":"U","TIME_SYSTEM":"UTC","OBJECT_NAME":"STARLINK-1657","PERIAPSIS":"546.223","APOAPSIS":"548.171","EPHEMERIS_TYPE":"0","ECCENTRICITY":"0.00014060","MEAN_ELEMENT_THEORY":"SGP4","EPOCH":"2022-02-20T18:54:38.485152","SITE":"AFETR","MEAN_MOTION_DDOT":"0.0000000000000","CENTER_NAME":"EARTH","MEAN_MOTION_DOT":"0.00000067","RA_OF_ASC_NODE":"171.1670","RCS_SIZE":"LARGE","ARG_OF_PERICENTER":"64.5016","SEMIMAJOR_AXIS":"6925.332","DECAY_DATE":null,"GP_ID":"196512784","PERIOD":"95.592","LAUNCH_DATE":"2020-09-03","NORAD_CAT_ID":"46354","OBJECT_TYPE":"PAYLOAD","REF_FRAME":"TEME","TLE_LINE2":"2 46354  53.0537 171.1670 0001406  64.5016 295.6118 15.06405383 81559","BSTAR":"0.00002337300000","ELEMENT_SET_NO":"999","REV_AT_EPOCH":"8155","OBJECT_ID":"2020-062AF","INCLINATION":"53.0537","MEAN_ANOMALY":"295.6118","FILE":"3310556","MEAN_MOTION":"15.06405383","TLE_LINE1":"1 46354U 20062AF  22051.78794543  .00000067  00000-0  23373-4 0  9994"}];
